NORAD_CAT_ID,OBJECT_NAME,OBJECT_TYPE,EPOCH,MEAN_MOTION,ECCENTRICITY,INCLINATION,RA_OF_ASC_NODE,ARG_OF_PERICENTER,MEAN_ANOMALY,BSTAR,MEAN_MOTION_DOT,MEAN_MOTION_DDOT,TLE_LINE0,TLE_LINE1,TLE_LINE2,SEMIMAJOR_AXIS,PERIOD,APOGEE,PERIGEE,DECAYED
53164.0,STARLINK-4116,PAYLOAD,2023-01-08 21:04:47,15.08845624,0.0002503,53.2203,312.7623,40.5561,319.5617,0.00081087,0.00012643,0.0,0 STARLINK-4116,1 53164U 22083AJ  23008.87832741  .00012643  00000-0  81087-3 0  9990,2 53164  53.2203 312.7623 0002503  40.5561 319.5617 15.08845624 26879,6917.863,95.437,541.46,537.997,0.0
53164.0,STARLINK-4116,PAYLOAD,2023-01-09 12:58:38,15.08850833,0.0003115,53.2193,309.7874,42.4226,317.7006,0.00051852,7.976e-05,0.0,0 STARLINK-4116,1 53164U 22083AJ  23009.54072568  .00007976  00000-0  51852-3 0  9998,2 53164  53.2193 309.7874 0003115  42.4226 317.7006 15.08850833 27602,6917.847,95.437,541.867,537.557,0.0
53164.0,STARLINK-4116,PAYLOAD,2023-01-10 04:52:30,15.088412300000002,0.0002651,53.22,306.8158,34.4704,325.646,0.0001012,1.323e-05,0.0,0 STARLINK-4116,1 53164U 22083AJ  23010.20312616  .00001323  00000-0  10120-3 0  9997,2 53164  53.2200 306.8158 0002651  34.4704 325.6460 15.08841230 27704,6917.877,95.437,541.576,537.908,0.0
53164.0,STARLINK-4116,PAYLOAD,2023-01-10 06:27:53,15.08839489,0.0002702,53.2198,306.5186,32.9919,327.1241,3.9879e-05,3.46e-06,0.0,0 STARLINK-4116,1 53164U 22083AJ  23010.26936668  .00000346  00000-0  39879-4 0  9999,2 53164  53.2198 306.5186 0002702  32.9919 327.1241 15.08839489 27084,6917.882,95.438,541.616,537.878,0.0
53164.0,STARLINK-4116,PAYLOAD,2023-01-11 12:40:12,15.08859182,0.000281,53.2183,300.8704,34.5588,325.5586,0.00038112,5.786e-05,0.0,0 STARLINK-4116,1 53164U 22083AJ  23011.52792047  .00005786  00000-0  38112-3 0  9991,2 53164  53.2183 300.8704 0002810  34.5588 325.5586 15.08859182 27278,6917.821999999999,95.436,541.631,537.743,0.0
53164.0,STARLINK-4116,PAYLOAD,2023-01-12 02:58:40,15.08851995,0.0002454,53.2203,298.191,38.384,321.7326,0.00028013,4.174e-05,0.0,0 STARLINK-4116,1 53164U 22083AJ  23012.12407999  .00004174  00000-0  28013-3 0  9996,2 53164  53.2203 298.1910 0002454  38.3840 321.7326 15.08851995 27999,6917.844,95.437,541.406,538.011,0.0
53164.0,STARLINK-4116,PAYLOAD,2023-01-12 22:03:17,15.08851995,0.0002442,53.2194,294.6247,35.4819,324.6335,3.0552e-06,-2.4e-06,0.0,0 STARLINK-4116,1 53164U 22083AJ  23012.91895447 -.00000240  00000-0  30552-5 0  9996,2 53164  53.2194 294.6247 0002442  35.4819 324.6335 15.08851995 27489,6917.844,95.437,541.398,538.019,0.0
53164.0,STARLINK-4116,PAYLOAD,2023-01-13 01:14:03,15.08869327,0.0002402,53.2174,294.0285,28.6443,331.4681,0.00028083,4.188e-05,0.0,0 STARLINK-4116,1 53164U 22083AJ  23013.05142387  .00004188  00000-0  28083-3 0  9998,2 53164  53.2174 294.0285 0002402  28.6443 331.4681 15.08869327 28137,6917.791,95.436,541.317,537.994,0.0
53164.0,STARLINK-4116,PAYLOAD,2023-01-13 18:43:20,15.08805559,0.0002748,53.2193,290.7607,12.3213,347.7846,-0.00049397,-8.134e-05,0.0,0 STARLINK-4116,1 53164U 22083AJ  23013.78009865 -.00008134  00000-0 -49397-3 0  9999,2 53164  53.2193 290.7607 0002748  12.3213 347.7846 15.08805559 28249,6917.986,95.44,541.752,537.95,0.0
53164.0,STARLINK-4116,PAYLOAD,2023-01-13 20:18:43,15.08807298,0.0002406,53.2186,290.4644,31.876,328.2378,-0.00044935,-7.427e-05,0.0,0 STARLINK-4116,1 53164U 22083AJ  23013.84633832 -.00007427  00000-0 -44935-3 0  9990,2 53164  53.2186 290.4644 0002406  31.8760 328.2378 15.08807298 27620,6917.98,95.44,541.51,538.181,0.0
53164.0,STARLINK-4116,PAYLOAD,2023-01-14 02:40:16,15.08816049,0.0002095,53.2181,289.2721,39.4123,320.7021,-0.00026164,-4.447e-05,0.0,0 STARLINK-4116,1 53164U 22083AJ  23014.11129801 -.00004447  00000-0 -26164-3 0  9990,2 53164  53.2181 289.2721 0002095  39.4123 320.7021 15.08816049 28298,6917.954000000001,95.439,541.268,538.369,0.0
53164.0,STARLINK-4116,PAYLOAD,2023-01-14 10:37:11,15.08825558,0.0002088,53.2185,287.7846,41.4788,318.6363,-8.1734e-05,-1.588e-05,0.0,0 STARLINK-4116,1 53164U 22083AJ  23014.44249714 -.00001588  00000-0 -81734-4 0  9990,2 53164  53.2185 287.7846 0002088  41.4788 318.6363 15.08825558 28341,6917.925,95.438,541.234,538.345,0.0
53164.0,STARLINK-4116,PAYLOAD,2023-01-15 04:06:25,15.08847455,0.0002052,53.2173,284.5129,46.9076,313.2087,0.00052478,8.075e-05,0.0,0 STARLINK-4116,1 53164U 22083AJ  23015.17113399  .00008075  00000-0  52478-3 0  9998,2 53164  53.2173 284.5129 0002052  46.9076 313.2087 15.08847455 28454,6917.858,95.437,541.1419999999999,538.303,0.0
53164.0,STARLINK-4116,PAYLOAD,2023-01-15 10:27:59,15.08833246,0.0002368,53.2168,283.3217,48.5501,311.5695,0.00026249,3.891e-05,0.0,0 STARLINK-4116,1 53164U 22083AJ  23015.43610009  .00003891  00000-0  26249-3 0  9995,2 53164  53.2168 283.3217 0002368  48.5501 311.5695 15.08833246 28497,6917.901,95.438,541.404,538.128,0.0
53164.0,STARLINK-4116,PAYLOAD,2023-01-15 18:24:55,15.08823626,0.0001606,53.2168,281.8354,65.3179,294.798,0.00037134,5.624e-05,0.0,0 STARLINK-4116,1 53164U 22083AJ  23015.76730605  .00005624  00000-0  37134-3 0  9997,2 53164  53.2168 281.8354 0001606  65.3179 294.7980 15.08823626 28540,6917.93,95.439,540.906,538.684,0.0
53164.0,STARLINK-4116,PAYLOAD,2023-01-15 21:35:41,15.08832745,0.0001636999999999,53.2173,281.2434,60.2194,299.8961,0.00045316,6.929999999999999e-05,0.0,0 STARLINK-4116,1 53164U 22083AJ  23015.89978335  .00006930  00000-0  45316-3 0  9997,2 53164  53.2173 281.2434 0001637  60.2194 299.8961 15.08832745 27933,6917.903,95.438,540.9,538.635,0.0
53164.0,STARLINK-4116,PAYLOAD,2023-01-16 00:46:26,15.08854065,0.0001626,53.2179,280.6483,54.8862,305.2282,0.00061137,9.459e-05,0.0,0 STARLINK-4116,1 53164U 22083AJ  23016.03225407  .00009459  00000-0  61137-3 0  9997,2 53164  53.2179 280.6483 0001626  54.8862 305.2282 15.08854065 28584,6917.837,95.437,540.827,538.578,0.0
53164.0,STARLINK-4116,PAYLOAD,2023-01-16 10:18:46,15.08813194,0.0001573,53.2178,278.8628,72.727,287.3894,-0.00066196,-0.000108,0.0,0 STARLINK-4116,1 53164U 22083AJ  23016.42970523 -.00010800  00000-0 -66196-3 0  9990,2 53164  53.2178 278.8628 0001573  72.7270 287.3894 15.08813194 28640,6917.962,95.439,540.9159999999999,538.739,0.0
53164.0,STARLINK-4116,PAYLOAD,2023-01-16 19:51:05,15.08808261,7.509999999999998e-05,53.2192,277.0789,93.9089,266.1989,-0.00075476,-0.00012269,0.0,0 STARLINK-4116,1 53164U 22083AJ  23016.82714667 -.00012269  00000-0 -75476-3 0  9991,2 53164  53.2192 277.0789 0000751  93.9089 266.1989 15.08808261 28071,6917.977,95.44,540.362,539.323,0.0
53164.0,STARLINK-4116,PAYLOAD,2023-01-17 02:12:38,15.08821447,0.0001473,53.2156,275.8902,96.246,263.87,0.00025427,3.759e-05,0.0,0 STARLINK-4116,1 53164U 22083AJ  23017.09210966  .00003759  00000-0  25427-3 0  9997,2 53164  53.2156 275.8902 0001473  96.2460 263.8700 15.08821447 28745,6917.937,95.439,540.821,538.783,0.0
53164.0,STARLINK-4116,PAYLOAD,2023-01-17 10:09:34,15.08828543,0.0001327,53.2161,274.4041,89.5956,270.5188,0.0011949999999999,0.00018776,0.0,0 STARLINK-4116,1 53164U 22083AJ  23017.42331569  .00018776  00000-0  11950-2 0  9997,2 53164  53.2161 274.4041 0001327  89.5956 270.5188 15.08828543 28168,6917.915,95.438,540.698,538.862,0.0
53164.0,STARLINK-4116,PAYLOAD,2023-01-17 21:17:16,15.08846604,0.0001274,53.2159,272.3233,87.3934,272.7204,0.0013873,0.00021864,0.0,0 STARLINK-4116,1 53164U 22083AJ  23017.88699714  .00021864  00000-0  13873-2 0  9994,2 53164  53.2159 272.3233 0001274  87.3934 272.7204 15.08846604 28237,6917.86,95.437,540.607,538.844,0.0
53164.0,STARLINK-4116,PAYLOAD,2023-01-18 02:03:25,15.08856711,0.0001284,53.216,271.4304,87.7031,272.4108,0.0015044,0.00023747,0.0,0 STARLINK-4116,1 53164U 22083AJ  23018.08571504  .00023747  00000-0  15044-2 0  9997,2 53164  53.2160 271.4304 0001284  87.7031 272.4108 15.08856711 28893,6917.829000000001,95.436,540.5830000000001,538.806,0.0
53164.0,STARLINK-4116,PAYLOAD,2023-01-18 10:00:21,15.08860202,0.0001361999999999,53.2167,269.9431,87.6289,272.4859,0.0013076,0.00020595,0.0,0 STARLINK-4116,1 53164U 22083AJ  23018.41691392  .00020595  00000-0  13076-2 0  9993,2 53164  53.2167 269.9431 0001362  87.6289 272.4859 15.08860202 28943,6917.819,95.436,540.626,538.741,0.0
53164.0,STARLINK-4116,PAYLOAD,2023-01-18 21:08:02,15.08859335,0.0001276,53.2158,267.8634,86.9766,273.1372,0.0010255999999999,0.00016081,0.0,0 STARLINK-4116,1 53164U 22083AJ  23018.88059016  .00016081  00000-0  10256-2 0  9997,2 53164  53.2158 267.8634 0001276  86.9766 273.1372 15.08859335 28382,6917.821,95.436,540.569,538.804,0.0
53164.0,STARLINK-4116,PAYLOAD,2023-01-19 01:54:11,15.08868519,0.0001235,53.2163,266.9662,99.3585,260.7547,0.00078956,0.0001230999999999,0.0,0 STARLINK-4116,1 53164U 22083AJ  23019.07930465  .00012310  00000-0  78956-3 0  9998,2 53164  53.2163 266.9662 0001235  99.3585 260.7547 15.08868519 29045,6917.793000000001,95.436,540.513,538.804,0.0
53164.0,STARLINK-4116,PAYLOAD,2023-01-19 09:51:07,15.08848089,8.55e-05,53.2162,265.4823,105.5877,254.521,5.3897e-05,5.7000000000000005e-06,0.0,0 STARLINK-4116,1 53164U 22083AJ  23019.41050550  .00000570  00000-0  53897-4 0  9997,2 53164  53.2162 265.4823 0000855 105.5877 254.5210 15.08848089 29091,6917.856,95.437,540.312,539.129,0.0
53164.0,STARLINK-4116,PAYLOAD,2023-01-19 16:12:40,15.08823018,8.809999999999999e-05,53.216,264.2929,110.4338,249.6748,-0.00060119,-9.838e-05,0.0,0 STARLINK-4116,1 53164U 22083AJ  23019.67547081 -.00009838  00000-0 -60119-3 0  9997,2 53164  53.2160 264.2929 0000881 110.4338 249.6748 15.08823018 29130,6917.932,95.439,540.4069999999999,539.188,0.0
53164.0,STARLINK-4116,PAYLOAD,2023-01-20 01:44:59,15.08838927,0.0001354,53.2162,262.5085,107.8207,252.2933,0.00040478,6.159999999999999e-05,0.0,0 STARLINK-4116,1 53164U 22083AJ  23020.07291281  .00006160  00000-0  40478-3 0  9990,2 53164  53.2162 262.5085 0001354 107.8207 252.2933 15.08838927 29194,6917.884,95.438,540.685,538.812,0.0
